STARLINK-32375          
1 61070U 24164W   26039.80908418 -.00000238  00000+0  41014-5 0  9997
2 61070  53.1586 225.4121 0002114 149.4769 210.6355 15.30197067 79051
STARLINK-11209 [DTC]    
1 61200U 24171A   26039.06750518  .00000746  00000+0  11026-4 0  9996
2 61200  53.1588 322.4849 0001306  61.5939 298.5211 15.69699493 80654
STARLINK-11257 [DTC]    
1 61201U 24171B   26039.18994575  .00002737  00000+0  27461-4 0  9995
2 61201  53.1586 321.8207 0001018  50.5819 309.5288 15.69689393 79764
STARLINK-11309 [DTC]    
1 61202U 24171C   26039.18503905  .00002268  00000+0  23594-4 0  9991
2 61202  53.1592 321.7861 0000977  89.8339 270.2790 15.69683257 79767
STARLINK-11292 [DTC]    
1 61203U 24171D   26039.05281605 -.00001429  00000+0 -69565-5 0  9997
2 61203  53.1591 322.3801 0001256  50.4687 309.6442 15.69660812 79740
STARLINK-11302 [DTC]    
1 61204U 24171E   26039.04793471 -.00008104  00000+0 -62288-4 0  9997
2 61204  53.1590 322.3483 0001149  52.4969 307.6153 15.69637146 79743
STARLINK-11277 [DTC]    
1 61205U 24171F   26039.03806993  .00001638  00000+0  18382-4 0  9990
2 61205  53.1596 322.2791 0001144  92.2312 267.8837 15.69705179 79748
STARLINK-11279 [DTC]    
1 61206U 24171G   26039.03316155  .00001146  00000+0  14320-4 0  9999
2 61206  53.1588 322.2466 0001337 144.5433 215.5675 15.69704025 79747
STARLINK-11091 [DTC]    
1 61207U 24171H   26039.04297657  .00005357  00000+0  49098-4 0  9994
2 61207  53.1590 322.3137 0001020  75.7457 284.3674 15.69682682 79744
STARLINK-11291 [DTC]    
1 61208U 24171J   26039.15559660  .00000485  00000+0  88586-5 0  9995
2 61208  53.1575 321.5861 0000621 100.3041 259.8047 15.69698875 79767
STARLINK-11304 [DTC]    
1 61209U 24171K   26039.15069631  .00000171  00000+0  62690-5 0  9990
2 61209  53.1593 321.5546 0000614  97.8147 262.2941 15.69694404 80674
STARLINK-11307 [DTC]    
1 61210U 24171L   26039.08217030  .00009297  00000+0  81337-4 0  9998
2 61210  53.1591 322.5780 0001504  47.8762 312.2383 15.69761918 79749
STARLINK-11298 [DTC]    
1 61211U 24171M   26039.20464832 -.00000072  00000+0  42631-5 0  9995
2 61211  53.1588 321.9093 0001237  70.1130 290.0021 15.69709925 79761
STARLINK-11310 [DTC]    
1 61212U 24171N   26039.19974255  .00001896  00000+0  20506-4 0  9999
2 61212  53.1604 321.8816 0000741  56.9651 303.1438 15.69704869 79762
STARLINK-32386          
1 61213U 24171P   26039.43043535  .00009785  00000+0  34260-3 0  9991
2 61213  53.1597  98.0026 0001667  77.5175 282.6012 15.30147874 77894
STARLINK-32392          
1 61214U 24171Q   26039.38305639 -.00001493  00000+0 -38304-4 0  9996
2 61214  53.1603  98.4189 0001230  80.2215 279.8924 15.30192181 77889
STARLINK-32436          
1 61215U 24171R   26039.43148078  .00000330  00000+0  23279-4 0  9997
2 61215  53.1595  98.0109 0001177  76.6645 283.4487 15.30189231 77892
STARLINK-32425          
1 61216U 24171S   26039.40627121  .00002123  00000+0  83834-4 0  9991
2 61216  53.1620  98.5681 0001754  62.5135 297.6044 15.30177880 77883
STARLINK-32342          
1 61217U 24171T   26039.39570193  .00004471  00000+0  16307-3 0  9994
2 61217  53.1612  98.4986 0001131 137.6184 222.4904 15.30179976 78799
STARLINK-32423          
1 61218U 24171U   26039.39782160  .00003010  00000+0  11374-3 0  9991
2 61218  53.1618  98.5084 0001294 134.4027 225.7080 15.30188120 78799
STARLINK-32248          
1 61219U 24171V   26039.48107143 -.00011071  00000+0 -36250-3 0  9992
2 61219  53.1608  98.3139 0001486  79.8983 280.2186 15.30174050 78806
STARLINK-11300 [DTC]    
1 61243U 24175A   26039.76785001  .00001433  00000+0  16691-4 0  9996
2 61243  53.1576 198.8684 0001082  49.0385 311.0726 15.69696130 78820
STARLINK-11276 [DTC]    
1 61244U 24175B   26039.69927791  .00002055  00000+0  21836-4 0  9991
2 61244  53.1593 199.1539 0001810  34.7343 325.3793 15.69697384 78810
STARLINK-11280 [DTC]    
1 61245U 24175C   26039.75314499 -.00004940  00000+0 -35960-4 0  9994
2 61245  53.1605 198.7767 0001162  76.1723 283.9424 15.69696805 78823
STARLINK-11308 [DTC]    
1 61246U 24175D   26039.69437000 -.00000236  00000+0  29087-5 0  9999
2 61246  53.1594 199.1155 0000827  79.2496 280.8615 15.69704430 78816
STARLINK-11305 [DTC]    
1 61247U 24175E   26039.74824300 -.00005966  00000+0 -44479-4 0  9996
2 61247  53.1586 198.7326 0000687  92.4255 267.6842 15.69682223 78828
STARLINK-11317 [DTC]    
1 61248U 24175F   26039.74332034 -.00000825  00000+0 -19575-5 0  9994
2 61248  53.1588 198.7071 0000722 128.6932 231.4151 15.69710645 78824
STARLINK-11293 [DTC]    
1 61249U 24175G   26039.73841177 -.00004382  00000+0 -31328-4 0  9998
2 61249  53.1580 198.6711 0000772 122.5347 237.5746 15.69717198 78822
STARLINK-11319 [DTC]    
1 61251U 24175J   26039.72871337  .00003164  00000+0  30994-4 0  9994
2 61251  53.1595 199.3404 0000833 106.1719 253.9390 15.69681429 78810
STARLINK-11318 [DTC]    
1 61252U 24175K   26039.72379846 -.00000480  00000+0  88856-6 0  9994
2 61252  53.1598 199.3071 0000748  77.4773 282.6329 15.69704068 79984
STARLINK-11311 [DTC]    
1 61253U 24175L   26039.71888608 -.00001219  00000+0 -52068-5 0  9992
2 61253  53.1569 199.2681 0001022 135.3626 224.7474 15.69706138 80021
STARLINK-11306 [DTC]    
1 61254U 24175M   26039.71399829 -.00001595  00000+0 -83094-5 0  9995
2 61254  53.1591 199.2365 0001349  77.3525 282.7643 15.69694460 80016
STARLINK-11313 [DTC]    
1 61255U 24175N   26039.77276419 -.00003445  00000+0 -23610-4 0  9994
2 61255  53.1586 198.8879 0000863 101.6225 258.4889 15.69694730 78822
STARLINK-32431          
1 61256U 24175P   26039.23313715 -.00000558  00000+0 -67238-5 0  9994
2 61256  53.1623 330.8651 0001326 106.3815 253.7332 15.30188725 76945
STARLINK-32432          
1 61257U 24175Q   26039.23630532  .00004404  00000+0  16086-3 0  9999
2 61257  53.1620 330.8843 0001936  74.1536 285.9678 15.30172905 76948
STARLINK-32382          
1 61258U 24175R   26039.23947882  .00018393  00000+0  63328-3 0  9992
2 61258  53.1617 330.9041 0001455 113.0445 247.0709 15.30112327 76940
STARLINK-32435          
1 61259U 24175S   26039.18154086  .00003280  00000+0  12289-3 0  9992
2 61259  53.1597 331.2545 0000720  77.5618 282.5464 15.30174799 76933
STARLINK-32474          
1 61260U 24175T   26039.09617222  .00005900  00000+0  21123-3 0  9998
2 61260  53.1607 331.4327 0000969  83.4764 276.6347 15.30188678 76924
STARLINK-32447          
1 61261U 24175U   26039.09934403  .00005292  00000+0  19084-3 0  9999
2 61261  53.1605 331.4501 0001043  69.1906 290.9207 15.30168595 76920
STARLINK-32446          
1 61262U 24175V   26039.04774061  .00002315  00000+0  90263-4 0  9999
2 61262  53.1585 331.8387 0001227  99.6126 260.5014 15.30193915 76912
STARLINK-32174          
1 61509U 24183A   26039.82656551  .00000072  00000+0  14576-4 0  9992
2 61509  53.1579 263.7123 0001168 106.0991 254.0138 15.30186621 75412
STARLINK-32139          
1 61510U 24183B   26039.83344296 -.00001018  00000+0 -22267-4 0  9994
2 61510  53.1592 276.5436 0001076  91.5009 268.6115 15.30190523 75236
STARLINK-32140          
1 61511U 24183C   26039.81655330 -.00001021  00000+0 -22354-4 0  9998
2 61511  53.1573 276.4453 0001265 100.7699 259.3444 15.30193863 75234
STARLINK-32201          
1 61512U 24183D   26039.82232940  .00002309  00000+0  90055-4 0  9999
2 61512  53.1587 263.6865 0000856 106.2186 253.8909 15.30199006 75412
STARLINK-32030          
1 61513U 24183E   26039.83977166 -.00000991  00000+0 -21350-4 0  9996
2 61513  53.1592 276.5825 0001190  74.6620 285.4513 15.30191637 75235
STARLINK-31837          
1 61514U 24183F   26039.82709844  .00002136  00000+0  84196-4 0  9990
2 61514  53.1596 276.4853 0002056 148.3489 211.7635 15.30212663 75234
STARLINK-32136          
1 61515U 24183G   26039.84927494 -.00000338  00000+0  69589-6 0  9990
2 61515  53.1594 276.6432 0001179  72.5646 287.5484 15.30191232 75237
STARLINK-32047          
1 61516U 24183H   26039.82394168 -.00000964  00000+0 -20440-4 0  9992
2 61516  53.1601 276.4703 0001203 154.4854 205.6206 15.30192402 75238
STARLINK-31756          
1 61517U 24183J   26038.88532992 -.00010519  00000+0 -34291-3 0  9992
2 61517  53.1599 281.2329 0000792  89.4632 270.6460 15.30256757 75087
STARLINK-32172          
1 61518U 24183K   26039.82077318 -.00000920  00000+0 -18939-4 0  9991
2 61518  53.1589 276.4517 0001363  90.8343 269.2814 15.30194333 75237
STARLINK-32338          
1 61519U 24183L   26039.81338825 -.00000634  00000+0 -92817-5 0  9994
2 61519  53.1593 276.4026 0001160  57.3461 302.7652 15.30197960 75234
STARLINK-32306          
1 61520U 24183M   26039.81022317 -.00000698  00000+0 -11449-4 0  9993
2 61520  53.1587 276.3839 0001145  93.2598 266.8534 15.30195506 75236
STARLINK-32297          
1 61521U 24183N   26039.80707372 -.00001462  00000+0 -37301-4 0  9999
2 61521  53.1577 276.3688 0000850  79.7567 280.3530 15.30175782 75236
STARLINK-32260          
1 61522U 24183P   26039.80388766 -.00001641  00000+0 -43294-4 0  9999
2 61522  53.1573 276.3463 0001143 104.0491 256.0636 15.30192149 75231
STARLINK-32305          
1 61523U 24183Q   26039.83660517 -.00000545  00000+0 -62849-5 0  9990
2 61523  53.1605 276.5507 0001386  58.0257 302.0878 15.30188999 75234
STARLINK-32296          
1 61524U 24183R   26038.95162883  .00009300  00000+0  32564-3 0  9991
2 61524  53.1570 280.2688 0001136  83.0107 277.1023 15.30208422 75107
STARLINK-32298          
1 61525U 24183S   26039.07907904 -.00004333  00000+0 -13415-3 0  9994
2 61525  53.1598 279.6417 0001061  93.8942 266.2180 15.30222600 75122
STARLINK-32293          
1 61526U 24183T   26038.94541420  .00003082  00000+0  11618-3 0  9998
2 61526  53.1583 280.9357 0001429  78.8737 281.2425 15.30187349 75093
STARLINK-32313          
1 61527U 24183U   26039.85347870 -.00005600  00000+0 -17716-3 0  9998
2 61527  53.1595 276.6472 0001184 104.5797 255.5335 15.30188314 75231
STARLINK-32319          
1 61528U 24183V   26038.87904122  .00007562  00000+0  26719-3 0  9999
2 61528  53.1593 281.2348 0001392  90.4843 269.6317 15.30199339 75088
